{"fetched_at":"2026-03-29T16:36:15Z","count":15609,"tles":[{"name":"STARLINK-11379 [DTC]","line1":"1 62089U 24220B   26087.91634978  .00210150  00000+0  15988-2 0  9996","line2":"2 62089  42.9989 287.4846 0001361 291.7397  68.3325 15.70861158 77975","category":"Starlink"}]}